start=new Date('2022-06-18T00:00:00.000Z').valueOf();
sats=[{"EPOCH":"2022-06-16T02:00:01.000224","COUNTRY_CODE":"US","ELEMENT_SET_NO":"999","RA_OF_ASC_NODE":"101.4766","PERIOD":"92.606","TLE_LINE2":"2 52296  53.2172 101.4766 0001231  73.9909 201.2335 15.54974254  1301","ECCENTRICITY":"0.00012310","ARG_OF_PERICENTER":"73.9909","TIME_SYSTEM":"UTC","FILE":"3497002","INCLINATION":"53.2172","LAUNCH_DATE":"2022-04-21","CENTER_NAME":"EARTH","OBJECT_ID":"2022-041AM","PERIAPSIS":"401.395","MEAN_MOTION":"15.54974254","MEAN_MOTION_DOT":"-0.00712630","EPHEMERIS_TYPE":"0","DECAY_DATE":null,"MEAN_ANOMALY":"201.2335","REV_AT_EPOCH":"130","REF_FRAME":"TEME","SEMIMAJOR_AXIS":"6780.364","CLASSIFICATION_TYPE":"U","OBJECT_TYPE":"PAYLOAD","MEAN_ELEMENT_THEORY":"SGP4","MEAN_MOTION_DDOT":"0.0000000000000","SITE":"AFETR","GP_ID":"206291731","APOAPSIS":"403.064","OBJECT_NAME":"STARLINK-3766","TLE_LINE1":"1 52296U 22041AM  22167.08334491 -.00712630  00000-0 -11418-1 0  9990","NORAD_CAT_ID":"52296","BSTAR":"-0.01141800000000","RCS_SIZE":"LARGE"},{"RCS_SIZE":"LARGE","BSTAR":"-0.01143300000000","NORAD_CAT_ID":"52297","TLE_LINE1":"1 52297U 22041AN  22167.08334491 -.00712939  00000-0 -11433-1 0  9990","MEAN_MOTION_DDOT":"0.0000000000000","MEAN_ELEMENT_THEORY":"SGP4","OBJECT_TYPE":"PAYLOAD","CLASSIFICATION_TYPE":"U","OBJECT_NAME":"STARLINK-3758","APOAPSIS":"403.159","GP_ID":"206291431","SITE":"AFETR","OBJECT_ID":"2022-041AN","CENTER_NAME":"EARTH","SEMIMAJOR_AXIS":"6780.431","REF_FRAME":"TEME","MEAN_ANOMALY":"204.9074","REV_AT_EPOCH":"130","DECAY_DATE":null,"EPHEMERIS_TYPE":"0","PERIAPSIS":"401.434","MEAN_MOTION_DOT":"-0.00712939","MEAN_MOTION":"15.54951256","TIME_SYSTEM":"UTC","TLE_LINE2":"2 52297  53.2172 101.4278 0001272  66.3721 204.9074 15.54951256  1300","ARG_OF_PERICENTER":"66.3721","PERIOD":"92.607","ECCENTRICITY":"0.00012720","RA_OF_ASC_NODE":"101.4278","ELEMENT_SET_NO":"999","EPOCH":"2022-06-16T02:00:01.000224","COUNTRY_CODE":"US","LAUNCH_DATE":"2022-04-21","INCLINATION":"53.2172","FILE":"3497002"},{"NORAD_CAT_ID":"52298","TLE_LINE1":"1 52298U 22041AP  22167.08334491 -.00712746  00000-0 -11418-1 0  9990","BSTAR":"-0.01141800000000","RCS_SIZE":"LARGE","GP_ID":"206291634","SITE":"AFETR","APOAPSIS":"403.060","OBJECT_NAME":"STARLINK-3760","CLASSIFICATION_TYPE":"U","OBJECT_TYPE":"PAYLOAD","MEAN_MOTION_DDOT":"0.0000000000000","MEAN_ELEMENT_THEORY":"SGP4","EPHEMERIS_TYPE":"0","DECAY_DATE":null,"MEAN_MOTION_DOT":"-0.00712746","PERIAPSIS":"401.372","MEAN_MOTION":"15.54978984","MEAN_ANOMALY":"205.5816","REV_AT_EPOCH":"130","REF_FRAME":"TEME","SEMIMAJOR_AXIS":"6780.351","CENTER_NAME":"EARTH","OBJECT_ID":"2022-041AP","INCLINATION":"53.2172","FILE":"3497002","LAUNCH_DATE":"2022-04-21","ELEMENT_SET_NO":"999","EPOCH":"2022-06-16T02:00:01.000224","COUNTRY_CODE":"US","RA_OF_ASC_NODE":"101.4864","TIME_SYSTEM":"UTC","TLE_LINE2":"2 52298  53.2172 101.4864 0001245  70.4317 205.5816 15.54978984  1307","PERIOD":"92.606","ARG_OF_PERICENTER":"70.4317","ECCENTRICITY":"0.00012450"},{"SEMIMAJOR_AXIS":"6780.378","REF_FRAME":"TEME","REV_AT_EPOCH":"130","MEAN_ANOMALY":"201.8031","EPHEMERIS_TYPE":"0","DECAY_DATE":null,"PERIAPSIS":"401.409","MEAN_MOTION":"15.54969727","MEAN_MOTION_DOT":"-0.00712806","OBJECT_ID":"2022-041AQ","CENTER_NAME":"EARTH","LAUNCH_DATE":"2022-04-21","INCLINATION":"53.2172","FILE":"3497002","TIME_SYSTEM":"UTC","TLE_LINE2":"2 52299  53.2172 101.4670 0001229  72.6324 201.8031 15.54969727  1300","ECCENTRICITY":"0.00012290","PERIOD":"92.606","ARG_OF_PERICENTER":"72.6324","RA_OF_ASC_NODE":"101.4670","ELEMENT_SET_NO":"999","EPOCH":"2022-06-16T02:00:01.000224","COUNTRY_CODE":"US","RCS_SIZE":"LARGE","BSTAR":"-0.01142300000000","NORAD_CAT_ID":"52299","TLE_LINE1":"1 52299U 22041AQ  22167.08334491 -.00712806  00000-0 -11423-1 0  9994","OBJECT_NAME":"STARLINK-3759","APOAPSIS":"403.076","GP_ID":"206291531","SITE":"AFETR","MEAN_MOTION_DDOT":"0.0000000000000","MEAN_ELEMENT_THEORY":"SGP4","CLASSIFICATION_TYPE":"U","OBJECT_TYPE":"PAYLOAD"},{"MEAN_MOTION_DOT":"-0.00712850","PERIAPSIS":"401.374","MEAN_MOTION":"15.54988339","DECAY_DATE":null,"EPHEMERIS_TYPE":"0","MEAN_ANOMALY":"178.7644","REV_AT_EPOCH":"130","REF_FRAME":"TEME","SEMIMAJOR_AXIS":"6780.324","CENTER_NAME":"EARTH","OBJECT_ID":"2022-041AR","FILE":"3497002","INCLINATION":"53.2172","LAUNCH_DATE":"2022-04-21","EPOCH":"2022-06-16T02:00:01.000224","COUNTRY_CODE":"US","ELEMENT_SET_NO":"999","RA_OF_ASC_NODE":"101.5060","PERIOD":"92.605","TLE_LINE2":"2 52300  53.2172 101.5060 0001201  98.8263 178.7644 15.54988339  1301","ARG_OF_PERICENTER":"98.8263","ECCENTRICITY":"0.00012010","TIME_SYSTEM":"UTC","TLE_LINE1":"1 52300U 22041AR  22167.08334491 -.00712850  00000-0 -11416-1 0  9998","NORAD_CAT_ID":"52300","BSTAR":"-0.01141600000000","RCS_SIZE":"LARGE","SITE":"AFETR","GP_ID":"206291797","APOAPSIS":"403.003","OBJECT_NAME":"STARLINK-3769","CLASSIFICATION_TYPE":"U","OBJECT_TYPE":"PAYLOAD","MEAN_ELEMENT_THEORY":"SGP4","MEAN_MOTION_DDOT":"0.0000000000000"},{"RCS_SIZE":"LARGE","BSTAR":"-0.01141900000000","NORAD_CAT_ID":"52301","TLE_LINE1":"1 52301U 22041AS  22167.08334491 -.00712462  00000-0 -11419-1 0  9991","MEAN_MOTION_DDOT":"0.0000000000000","MEAN_ELEMENT_THEORY":"SGP4","OBJECT_TYPE":"PAYLOAD","CLASSIFICATION_TYPE":"U","OBJECT_NAME":"STARLINK-3768","APOAPSIS":"403.104","GP_ID":"206291086","SITE":"AFETR","OBJECT_ID":"2022-041AS","CENTER_NAME":"EARTH","SEMIMAJOR_AXIS":"6780.392","REF_FRAME":"TEME","REV_AT_EPOCH":"130","MEAN_ANOMALY":"203.6675","DECAY_DATE":null,"EPHEMERIS_TYPE":"0","MEAN_MOTION":"15.54964829","PERIAPSIS":"401.409","MEAN_MOTION_DOT":"-0.00712462","TIME_SYSTEM":"UTC","TLE_LINE2":"2 52301  53.2172 101.4571 0001250  69.9792 203.6675 15.54964829  1308","PERIOD":"92.607","ECCENTRICITY":"0.00012500","ARG_OF_PERICENTER":"69.9792","RA_OF_ASC_NODE":"101.4571","ELEMENT_SET_NO":"999","COUNTRY_CODE":"US","EPOCH":"2022-06-16T02:00:01.000224","LAUNCH_DATE":"2022-04-21","INCLINATION":"53.2172","FILE":"3497002"},{"REF_FRAME":"TEME","SEMIMAJOR_AXIS":"6727.805","EPHEMERIS_TYPE":"0","DECAY_DATE":null,"PERIAPSIS":"347.042","MEAN_MOTION_DOT":"0.00038638","MEAN_MOTION":"15.73231542","MEAN_ANOMALY":"304.1769","REV_AT_EPOCH":"130","CENTER_NAME":"EARTH","OBJECT_ID":"2022-041AT","INCLINATION":"53.2157","FILE":"3497002","LAUNCH_DATE":"2022-04-21","TIME_SYSTEM":"UTC","ECCENTRICITY":"0.00039060","TLE_LINE2":"2 52302  53.2157 100.6317 0003906   6.5046 304.1769 15.73231542  1301","PERIOD":"91.531","ARG_OF_PERICENTER":"6.5046","ELEMENT_SET_NO":"999","EPOCH":"2022-06-16T02:00:01.000224","COUNTRY_CODE":"US","RA_OF_ASC_NODE":"100.6317","BSTAR":"0.00027800000000","RCS_SIZE":"LARGE","NORAD_CAT_ID":"52302","TLE_LINE1":"1 52302U 22041AT  22167.08334491  .00038638  00000-0  27800-3 0  9999","OBJECT_NAME":"STARLINK-3564","GP_ID":"206291288","SITE":"AFETR","APOAPSIS":"352.298","MEAN_MOTION_DDOT":"0.0000000000000","MEAN_ELEMENT_THEORY":"SGP4","CLASSIFICATION_TYPE":"U","OBJECT_TYPE":"PAYLOAD"},{"LAUNCH_DATE":"2022-04-21","FILE":"3497002","INCLINATION":"53.2172","ARG_OF_PERICENTER":"77.6557","TLE_LINE2":"2 52303  53.2172 101.4964 0001212  77.6557 199.1463 15.54983574  1301","PERIOD":"92.605","ECCENTRICITY":"0.00012120","TIME_SYSTEM":"UTC","RA_OF_ASC_NODE":"101.4964","EPOCH":"2022-06-16T02:00:01.000224","COUNTRY_CODE":"US","ELEMENT_SET_NO":"999","SEMIMAJOR_AXIS":"6780.337","REF_FRAME":"TEME","MEAN_ANOMALY":"199.1463","REV_AT_EPOCH":"130","PERIAPSIS":"401.381","MEAN_MOTION":"15.54983574","MEAN_MOTION_DOT":"-0.00712680","EPHEMERIS_TYPE":"0","DECAY_DATE":null,"OBJECT_ID":"2022-041AU","CENTER_NAME":"EARTH","OBJECT_NAME":"STARLINK-3742","APOAPSIS":"403.024","SITE":"AFETR","GP_ID":"206291186","MEAN_ELEMENT_THEORY":"SGP4","MEAN_MOTION_DDOT":"0.0000000000000","CLASSIFICATION_TYPE":"U","OBJECT_TYPE":"PAYLOAD","RCS_SIZE":"LARGE","BSTAR":"-0.01141500000000","TLE_LINE1":"1 52303U 22041AU  22167.08334491 -.00712680  00000-0 -11415-1 0  9991","NORAD_CAT_ID":"52303"},{"BSTAR":"0.00030756000000","RCS_SIZE":"LARGE","TLE_LINE1":"1 52304U 22041AV  22167.08334491  .00042786  00000-0  30756-3 0  9994","NORAD_CAT_ID":"52304","MEAN_ELEMENT_THEORY":"SGP4","MEAN_MOTION_DDOT":"0.0000000000000","CLASSIFICATION_TYPE":"U","OBJECT_TYPE":"PAYLOAD","OBJECT_NAME":"STARLINK-3744","SITE":"AFETR","GP_ID":"206291732","APOAPSIS":"352.388","CENTER_NAME":"EARTH","OBJECT_ID":"2022-041AV","REF_FRAME":"TEME","SEMIMAJOR_AXIS":"6727.881","MEAN_MOTION_DOT":"0.00042786","PERIAPSIS":"347.103","MEAN_MOTION":"15.73205112","DECAY_DATE":null,"EPHEMERIS_TYPE":"0","MEAN_ANOMALY":"300.3272","REV_AT_EPOCH":"130","TLE_LINE2":"2 52304  53.2159 100.6306 0003928  10.9974 300.3272 15.73205112  1307","PERIOD":"91.533","ARG_OF_PERICENTER":"10.9974","ECCENTRICITY":"0.00039280","TIME_SYSTEM":"UTC","EPOCH":"2022-06-16T02:00:01.000224","COUNTRY_CODE":"US","ELEMENT_SET_NO":"999","RA_OF_ASC_NODE":"100.6306","FILE":"3497002","INCLINATION":"53.2159","LAUNCH_DATE":"2022-04-21"},{"BSTAR":"-0.01141100000000","RCS_SIZE":"LARGE","TLE_LINE1":"1 52305U 22041AW  22167.08334491 -.00712670  00000-0 -11411-1 0  9998","NORAD_CAT_ID":"52305","MEAN_ELEMENT_THEORY":"SGP4","MEAN_MOTION_DDOT":"0.0000000000000","OBJECT_TYPE":"PAYLOAD","CLASSIFICATION_TYPE":"U","OBJECT_NAME":"STARLINK-3724","SITE":"AFETR","GP_ID":"206291432","APOAPSIS":"402.980","CENTER_NAME":"EARTH","OBJECT_ID":"2022-041AW","REF_FRAME":"TEME","SEMIMAJOR_AXIS":"6780.310","PERIAPSIS":"401.371","MEAN_MOTION":"15.54992827","MEAN_MOTION_DOT":"-0.00712670","DECAY_DATE":null,"EPHEMERIS_TYPE":"0","MEAN_ANOMALY":"189.1725","REV_AT_EPOCH":"130","PERIOD":"92.605","TLE_LINE2":"2 52305  53.2172 101.5131 0001187  89.2069 189.1725 15.54992827  1309","ECCENTRICITY":"0.00011870","ARG_OF_PERICENTER":"89.2069","TIME_SYSTEM":"UTC","COUNTRY_CODE":"US","EPOCH":"2022-06-16T02:00:01.000224","ELEMENT_SET_NO":"999","RA_OF_ASC_NODE":"101.5131","FILE":"3497002","INCLINATION":"53.2172","LAUNCH_DATE":"2022-04-21"}];
